      2.10          N: GNSS NAV DATA                        RINEX VERSION / TYPE
fic2rin                                 01/01/2022 00:17:22 PGM / RUN BY / DATE
                                                            END OF HEADER
16 21 12 31 14  0  0.0-4.487805999815e-04-5.684341886081e-12 0.000000000000e+00
    7.100000000000e+01 1.570625000000e+02 3.884447517117e-09-2.776400065670e+00
    7.977709174156e-06 1.257144403644e-02 9.767711162567e-06 5.153590490341e+03
    4.824000000000e+05 3.539025783539e-08-3.052966422614e+00-1.825392246246e-07
    9.713224379926e-01 1.963437500000e+02 6.911849356326e-01-7.634960883910e-09
    1.010756387775e-10 1.000000000000e+00 2.190000000000e+03 0.000000000000e+00
    2.400000000000e+00 0.000000000000e+00-1.024454832077e-08 7.100000000000e+01
    4.752000000000e+05 4.000000000000e+00
10 21 12 31 14  0  0.0-2.819574438035e-04-9.322320693173e-12 0.000000000000e+00
    8.600000000000e+01-6.421875000000e+01 4.016953036503e-09-1.586742588826e+00
   -3.380700945854e-06 7.403796538711e-03 1.154281198978e-05 5.153681400299e+03
    4.824000000000e+05 1.154839992523e-07-3.858221144683e-03-9.313225746155e-09
    9.722303366560e-01 1.600000000000e+02-2.547206164812e+00-7.526027774980e-09
    6.911002156694e-10 1.000000000000e+00 2.190000000000e+03 0.000000000000e+00
    2.400000000000e+00 0.000000000000e+00 2.328306436539e-09 8.600000000000e+01
    4.752000000000e+05 4.000000000000e+00
 9 21 12 31 14  0  0.0-3.592167049646e-04 9.094947017729e-13 0.000000000000e+00
    8.700000000000e+01 1.184375000000e+01 5.276291207279e-09 3.042174110214e+00
    7.506459951401e-07 2.371313166805e-03 5.675479769707e-06 5.153637186050e+03
    4.824000000000e+05 1.341104507446e-07 1.027206068079e+00 6.146728992462e-08
    9.536574768961e-01 2.671250000000e+02 1.851880699956e+00-8.313917736616e-09
    2.832260832175e-10 1.000000000000e+00 2.190000000000e+03 0.000000000000e+00
    2.400000000000e+00 0.000000000000e+00 1.396983861923e-09 8.700000000000e+01
    4.752000000000e+05 4.000000000000e+00
13 21 12 31 14  0  0.0 2.379813231528e-04 5.911715561524e-12 0.000000000000e+00
    6.300000000000e+01 1.593750000000e+00 4.908418741057e-09 2.086124589634e+00
    5.587935447693e-09 5.791333154775e-03 5.623325705528e-06 5.153662977219e+03
    4.824000000000e+05-8.568167686462e-08 1.179363219292e+00-1.024454832077e-07
    9.680652113903e-01 2.746875000000e+02 9.767769909566e-01-7.993904406777e-09
    5.035924052165e-11 1.000000000000e+00 2.190000000000e+03 0.000000000000e+00
    2.400000000000e+00 0.000000000000e+00-1.117587089539e-08 6.300000000000e+01
    4.752000000000e+05 4.000000000000e+00
12 21 12 31 14  0  0.0-1.488993875682e-04-5.570655048359e-12 0.000000000000e+00
    1.670000000000e+02 1.629687500000e+02 4.015524405567e-09-9.168537071628e-01
    8.467584848404e-06 8.514600805938e-03 8.609145879745e-06 5.153639404297e+03
    4.824000000000e+05 9.313225746155e-09-3.071600221690e+00 1.583248376846e-07
    9.713515310445e-01 2.213750000000e+02 1.232185803016e+00-7.957117160155e-09
    2.928693420408e-11 1.000000000000e+00 2.190000000000e+03 0.000000000000e+00
    2.400000000000e+00 0.000000000000e+00-1.257285475731e-08 1.670000000000e+02
    4.752000000000e+05 4.000000000000e+00
32 21 12 31 14  0  0.0-4.326039925218e-05-5.798028723802e-12 0.000000000000e+00
    7.700000000000e+01 7.500000000000e+00 5.073068456521e-09-2.947457600594e+00
    4.097819328308e-07 5.345738260075e-03 5.913898348808e-06 5.153744771957e+03
    4.824000000000e+05 7.450580596924e-09 1.038206558110e+00-1.117587089539e-07
    9.575254820369e-01 2.624687500000e+02-2.383487551538e+00-8.054978379324e-09
    2.585821995580e-10 1.000000000000e+00 2.190000000000e+03 0.000000000000e+00
    2.400000000000e+00 0.000000000000e+00 4.656612873077e-10 7.700000000000e+01
    4.752000000000e+05 4.000000000000e+00
23 21 12 31 14  0  0.0 1.600710675120e-05-3.979039320257e-12 0.000000000000e+00
    1.300000000000e+02-6.493750000000e+01 4.168030758068e-09-2.257282391501e-01
   -3.326684236526e-06 1.953111379407e-03 1.181848347187e-05 5.153699108124e+03
    4.824000000000e+05 1.676380634308e-08-2.846650597281e-02 3.539025783539e-08
    9.672738063566e-01 1.549375000000e+02 2.893231286993e+00-7.662462029443e-09
    6.175257224250e-10 1.000000000000e+00 2.190000000000e+03 0.000000000000e+00
    2.400000000000e+00 0.000000000000e+00-8.381903171539e-09 1.300000000000e+02
    4.752000000000e+05 4.000000000000e+00
21 21 12 31 14  0  0.0 1.550684683025e-04 9.094947017729e-13 0.000000000000e+00
    8.700000000000e+01-1.489687500000e+02 4.471614832135e-09 2.771722715731e+00
   -7.724389433861e-06 2.443302713800e-02 3.103166818619e-06 5.153605030060e+03
    4.824000000000e+05 3.576278686523e-07-1.126005457710e+00 2.384185791016e-07
    9.589902419300e-01 3.164062500000e+02-1.035446327204e+00-7.923544333140e-09
   -2.842975564201e-10 1.000000000000e+00 2.190000000000e+03 0.000000000000e+00
    2.400000000000e+00 0.000000000000e+00-1.024454832077e-08 8.700000000000e+01
    4.752000000000e+05 4.000000000000e+00
20 21 12 31 14  0  0.0 5.173878744245e-04-1.136868377216e-13 0.000000000000e+00
    9.900000000000e+01-6.262500000000e+01 4.719482299667e-09 1.489086798831e+00
   -3.386288881302e-06 5.369760445319e-03 1.193583011627e-05 5.153719181061e+03
    4.824000000000e+05-6.705522537231e-08-1.539401835637e-01 8.754432201385e-08
    9.415477745812e-01 1.393750000000e+02 3.087396644337e+00-7.953902740547e-09
    4.318037006431e-10 1.000000000000e+00 2.190000000000e+03 0.000000000000e+00
    2.400000000000e+00 0.000000000000e+00-8.381903171539e-09 9.900000000000e+01
    4.752000000000e+05 4.000000000000e+00
25 21 12 31 14  0  0.0 2.639973536134e-04 5.684341886081e-12 0.000000000000e+00
    7.100000000000e+01 1.551562500000e+02 4.245891144123e-09-1.137210020425e+00
    8.033588528633e-06 1.028272591066e-02 9.531155228615e-06 5.153741128922e+03
    4.824000000000e+05 2.011656761169e-07 3.135466469084e+00 2.048909664154e-07
    9.587573073359e-01 1.954062500000e+02 9.666886639945e-01-7.973546415928e-09
   -9.036090675161e-11 1.000000000000e+00 2.190000000000e+03 0.000000000000e+00
    2.400000000000e+00 0.000000000000e+00 5.587935447693e-09 7.100000000000e+01
    4.752000000000e+05 4.000000000000e+00
31 21 12 31 14  0  0.0-1.577096991241e-04-1.818989403546e-12 0.000000000000e+00
    1.870000000000e+02 2.500000000000e+00 4.765555647378e-09-6.984432841434e-01
    1.247972249985e-07 1.046380016487e-02 9.639188647270e-06 5.153661003113e+03
    4.824000000000e+05 1.881271600723e-07 2.117510821157e+00-9.313225746155e-09
    9.550081803812e-01 1.897187500000e+02 3.593339301691e-01-8.047478066906e-09
   -7.611031315719e-10 1.000000000000e+00 2.190000000000e+03 0.000000000000e+00
    2.400000000000e+00 0.000000000000e+00-1.303851604462e-08 1.870000000000e+02
    4.752000000000e+05 4.000000000000e+00
24 21 12 31 14  0  0.0 2.766447141767e-04 9.094947017729e-13 0.000000000000e+00
    1.870000000000e+02-1.000000000000e+00 5.367723587233e-09 7.206673738431e-01
    1.378357410431e-07 1.223767816555e-02 8.773058652878e-06 5.153695102692e+03
    4.824000000000e+05-5.774199962616e-08 2.017624287362e+00 1.210719347000e-07
    9.341509784293e-01 1.963125000000e+02 7.958324602449e-01-8.416064848597e-09
   -8.325346784111e-10 1.000000000000e+00 2.190000000000e+03 0.000000000000e+00
    2.400000000000e+00 0.000000000000e+00 2.328306436539e-09 1.870000000000e+02
    4.752000000000e+05 4.000000000000e+00
14 21 12 31 14  0  0.0-6.379140540957e-05-5.684341886081e-12 0.000000000000e+00
    1.800000000000e+01 1.365000000000e+02 4.249105563731e-09-9.016161631093e-01
    7.079914212227e-06 1.265219412744e-03 9.438022971153e-06 5.153653169632e+03
    4.824000000000e+05 0.000000000000e+00-3.102150819776e+00-1.005828380585e-07
    9.547669598191e-01 1.979375000000e+02 3.062475935798e+00-7.888185717455e-09
   -8.643217167545e-11 1.000000000000e+00 2.190000000000e+03 0.000000000000e+00
    2.400000000000e+00 0.000000000000e+00-7.916241884232e-09 5.300000000000e+02
    4.752000000000e+05 4.000000000000e+00
18 21 12 31 14  0  0.0 2.696374431252e-04-7.048583938740e-12 0.000000000000e+00
    9.500000000000e+01-1.672500000000e+02 4.199817796412e-09 6.027013128374e-01
   -8.612871170044e-06 2.094728522934e-03 5.999580025673e-06 5.153635633469e+03
    4.824000000000e+05 5.774199962616e-08-1.027828665532e+00 4.470348358154e-08
    9.702172926217e-01 2.685312500000e+02 3.099100050414e+00-8.091051310478e-09
   -1.864363372504e-10 1.000000000000e+00 2.190000000000e+03 0.000000000000e+00
    2.400000000000e+00 0.000000000000e+00-8.381903171539e-09 8.630000000000e+02
    4.752000000000e+05 4.000000000000e+00
22 21 12 31 14  0  0.0-4.284628666937e-04 8.867573342286e-12 0.000000000000e+00
    1.500000000000e+01-7.150000000000e+01 4.815914887900e-09 1.510463861888e+00
   -3.725290298462e-06 6.850217818283e-03 1.131743192673e-05 5.153649492264e+03
    4.824000000000e+05 2.160668373108e-07-1.081261755692e-01-2.048909664154e-08
    9.382720859528e-01 1.526875000000e+02-8.649408726934e-01-7.936044853837e-09
    4.557332688342e-10 1.000000000000e+00 2.190000000000e+03 0.000000000000e+00
    2.400000000000e+00 6.300000000000e+01-1.769512891769e-08 1.500000000000e+01
    4.752000000000e+05 4.000000000000e+00
11 21 12 31 14  0  0.0 1.816079020500e-08-3.376499080332e-11 0.000000000000e+00
    1.820000000000e+02-1.476250000000e+02 4.368039089218e-09 2.653636319473e+00
   -7.700175046921e-06 3.295127535239e-04 6.310641765594e-06 5.153756872177e+03
    4.824000000000e+05-2.235174179077e-08-9.914777362388e-01 3.166496753693e-08
    9.615464177079e-01 2.530625000000e+02 2.774638171023e+00-8.119266771480e-09
   -1.464346710204e-10 1.000000000000e+00 2.190000000000e+03 0.000000000000e+00
    2.400000000000e+00 6.300000000000e+01-8.847564458847e-09 4.380000000000e+02
    4.752000000000e+05 4.000000000000e+00
